SL-4 R/B                
1 39679U 14021B   25342.64863310  .00017207  00000+0  40816-3 0  9997
2 39679  51.6073  60.4745 0102169 131.4435 229.5380 15.36517716642265
ALOS-2                  
1 39766U 14029A   25342.95558002  .00002691  00000+0  36725-3 0  9990
2 39766  97.9229  77.8557 0001435 101.4250 258.7123 14.79456223623457
YAOGAN-29               
1 41038U 15069A   25343.17583464  .00001181  00000+0  15249-3 0  9996
2 41038  98.0218   6.3358 0000411 355.7513   4.3696 14.82878292542466
ASTRO-H (HITOMI)        
1 41337U 16012A   25343.05291825  .00004259  00000+0  25469-3 0  9995
2 41337  30.9983 221.1410 0009501 141.6857 218.4457 15.09316337538522
HXMT (HUIYAN)           
1 42758U 17034A   25342.96995065  .00004600  00000+0  24298-3 0  9993
2 42758  43.0125 160.5470 0032005  19.1267 341.0775 15.16196129468761
CZ-2C R/B               
1 43521U 18054D   25342.92823374  .00113010  00000+0  77893-3 0  9999
2 43521  35.1323 206.7289 0015952 103.6735 256.5775 15.73090809414452
SAOCOM 1A               
1 43641U 18076A   25342.95881837  .00001638  00000+0  21223-3 0  9995
2 43641  97.8841 167.4360 0001554  83.5117 276.6273 14.82154306387920
H-2A R/B                
1 43682U 18084L   25343.11248924  .00021747  00000+0  59192-3 0  9991
2 43682  98.8779 176.4402 0027624 339.0460  20.9645 15.37168656391842
SAOCOM 1B               
1 46265U 20059A   25343.19260767  .00000463  00000+0  64740-4 0  9991
2 46265  97.8837 166.7667 0001274  82.4859 277.6499 14.82152258285340
CSS (TIANHE)            
1 48274U 21035A   25343.19148778  .00028670  00000+0  36118-3 0  9992
2 48274  41.4681  38.2458 0008971   2.0907 357.9967 15.58939843263477
COSMOS 2550             
1 48865U 21056A   25343.20484058  .00005663  00000+0  17777-3 0  9994
2 48865  67.1458 314.6258 0008297 269.5162  90.5042 15.33841668249583
CZ-2C R/B               
1 52794U 22058K   25343.19321617  .00031116  00000+0  56159-3 0  9991
2 52794  50.1909  61.6324 0045730 183.7619 176.3012 15.48256270196083
